{
  "norad_id": 68019,
  "name": "STARLINK-36921",
  "history": [
    {
      "epoch": "2026-03-28T19:09:07.916256",
      "apogee_km": 345.19505267092154,
      "perigee_km": 342.51391914685337,
      "latitude_deg": 34.9907269556033,
      "longitude_deg": -21.491204160032794,
      "semi_major_axis_km": 6721.991485908888,
      "eccentricity": 0.00019943,
      "inclination_deg": 97.2857,
      "raan_deg": 37.1948,
      "arg_perigee_deg": 99.2159,
      "mean_anomaly_deg": 260.9332,
      "mean_motion_rev_day": 15.75272984
    }
  ]
}